NOAA 15                 
1 25338U 98030A   22040.58724497  .00000110  00000+0  64590-4 0  9994
2 25338  98.6600  71.6998 0009544 314.1148  45.9246 14.26088730235049
DMSP 5D-3 F15 (USA 147) 
1 25991U 99067A   22039.84912782  .00000065  00000+0  55805-4 0  9991
2 25991  99.0431  29.2915 0009958 188.3368 233.0098 14.16497096145563
METEOSAT-8 (MSG-1)      
1 27509U 02040B   22040.20519535  .00000135  00000+0  00000+0 0  9994
2 27509   7.8017  51.3323 0000648   3.9210 199.3700  1.00278185 71311
DMSP 5D-3 F16 (USA 172) 
1 28054U 03048A   22040.56876851  .00000042  00000+0  46248-4 0  9991
2 28054  98.9785  30.7836 0006831 326.0787 143.9447 14.13651199944958
NOAA 18                 
1 28654U 05018A   22040.57935129  .00000141  00000+0  10045-3 0  9996
2 28654  98.9651 111.0437 0013680 336.1737  23.8800 14.12686329862010
METEOSAT-9 (MSG-2)      
1 28912U 05049B   22033.19566535  .00000018  00000+0  00000+0 0  9997
2 28912   5.7146  67.1393 0003074  40.5062  98.6875  1.00355766 59030
FORMOSAT-3 FM6          
1 29047U 06011A   22039.81029454  .00000321  00000+0  14170-3 0  9990
2 29047  71.9800 322.4493 0048332 105.5229 255.1252 14.28899860827183
FORMOSAT-3 FM1          
1 29048U 06011B   22040.54406583  .00000273  00000+0  12350-3 0  9999
2 29048  71.9645 231.1607 0042094  61.7502 298.7873 14.28855417829779
FORMOSAT-3 FM5          
1 29049U 06011C   22040.44213504  .00000262  00000+0  11931-3 0  9990
2 29049  72.0200  46.4423 0032570  83.7357 276.7488 14.28937543825575
FORMOSAT-3 FM3          
1 29050U 06011D   22039.69982372  .00000624  00000+0  14023-3 0  9990
2 29050  72.0163 132.4761 0051399 310.2547  49.4116 14.59236230844006
FORMOSAT-3 FM4          
1 29051U 06011E   22040.14772186  .00000170  00000+0  81657-4 0  9997
2 29051  72.0059 307.9307 0069287 322.8765  36.7590 14.28971613828129
FORMOSAT-3 FM2          
1 29052U 06011F   22040.17287074  .00000282  00000+0  12650-3 0  9998
2 29052  72.0349  23.8790 0038589  39.7881 320.6074 14.29079708826479
EWS-G1 (GOES 13)        
1 29155U 06018A   22040.56811042  .00000040  00000+0  00000+0 0  9994
2 29155   0.4646  98.8989 0004494 159.0464 147.8073  1.00269371 57589
METOP-A                 
1 29499U 06044A   22040.62959487  .00000933  00000+0  13229-3 0  9999
2 29499  98.4695  81.0825 0199739  48.8546 110.8112 14.66925029794797
DMSP 5D-3 F17 (USA 191) 
1 29522U 06050A   22040.57413144  .00000084  00000+0  67025-4 0  9993
2 29522  98.7746  57.9780 0008803 263.9523  96.0647 14.14070152787838
FENGYUN 3A              
1 32958U 08026A   22040.53214238  .00000075  00000+0  56336-4 0  9997
2 32958  98.4850   8.5145 0009473  38.8348 321.3507 14.18687694710196
FENGYUN 2E              
1 33463U 08066A   22039.64024972 -.00000205  00000+0  00000+0 0  9995
2 33463   5.6220  66.0390 0003805 350.9062  38.8312  1.00276476 48157
NOAA 19                 
1 33591U 09005A   22040.56632247  .00000097  00000+0  77430-4 0  9998
2 33591  99.1647  71.9171 0013897 183.5777 176.5297 14.12528529670392
GOES 14                 
1 35491U 09033A   22040.62607833 -.00000089  00000+0  00000+0 0  9996
2 35491   0.0271  21.7501 0013650 206.8880  31.9359  1.00271713 46223
METEOR-M 1              
1 35865U 09049A   22040.50412796  .00000082  00000+0  55767-4 0  9994
2 35865  98.5116  15.2182 0001422 217.7188 142.3891 14.22304332643501
DMSP 5D-3 F18 (USA 210) 
1 35951U 09057A   22040.56287198  .00000202  00000+0  13034-3 0  9995
2 35951  98.7086  23.1976 0012177  90.8959 269.3609 14.13442360635051
GOES 15                 
1 36411U 10008A   22040.60556012  .00000057  00000+0  00000+0 0  9997
2 36411   0.0402 263.2855 0001381 103.0534 223.1559  1.00278313 43732
COMS 1                  
1 36744U 10032A   22040.43780637 -.00000342  00000+0  00000+0 0  9994
2 36744   0.7468  95.7527 0001019 226.1818 103.3329  1.00270818 42728
FENGYUN 3B              
1 37214U 10059A   22040.50993266  .00000015  00000+0  32008-4 0  9992
2 37214  99.0913  44.2121 0022238 358.9515   1.1607 14.14243344582872
SUOMI NPP               
1 37849U 11061A   22040.55111378  .00000045  00000+0  41938-4 0  9996
2 37849  98.7214 340.9559 0001072  73.0539 341.4184 14.19543442533043
FENGYUN 2F              
1 38049U 12002A   22040.06855112 -.00000356  00000+0  00000+0 0  9998
2 38049   3.4792  80.6583 0005620 353.4803 201.7999  1.00266046 36955
METEOSAT-10 (MSG-3)     
1 38552U 12035B   22040.27060902  .00000064  00000+0  00000+0 0  9996
2 38552   1.3575  32.4703 0001635 230.9599 342.8523  1.00264413 35283
METOP-B                 
1 38771U 12049A   22040.60960414  .00000050  00000+0  42932-4 0  9998
2 38771  98.6837 102.2957 0001918  75.0012  84.6848 14.21494956487562
FENGYUN 3C              
1 39260U 13052A   22040.50645861  .00000029  00000+0  35577-4 0  9995
2 39260  98.4703  74.9985 0009977 285.9317  74.0758 14.15898296433815
METEOR-M 2              
1 40069U 14037A   22040.49700742 -.00000013  00000+0  13108-4 0  9996
2 40069  98.4424  64.0735 0005340 346.6517  13.4522 14.20696884393696
HIMAWARI-8              
1 40267U 14060A   22040.44033569 -.00000273  00000+0  00000+0 0  9993
2 40267   0.0409 277.4258 0000974  54.7037 106.5154  1.00272113 26934
FENGYUN 2G              
1 40367U 14090A   22040.07332142 -.00000300  00000+0  00000+0 0  9996
2 40367   1.6141  90.7165 0003454 318.2679 216.2202  1.00266772 26100
METEOSAT-11 (MSG-4)     
1 40732U 15034A   22040.34047082 -.00000001  00000+0  00000+0 0  9995
2 40732   0.2117 338.4826 0001365  93.2938 190.0370  1.00277127 24083
ELEKTRO-L 2             
1 41105U 15074A   22039.90699628 -.00000115  00000+0  00000+0 0  9999
2 41105   2.6655  89.6569 0001255 150.7527 210.5718  1.00270453 22583
HIMAWARI-9              
1 41836U 16064A   22039.93795876 -.00000272  00000+0  00000+0 0  9999
2 41836   0.0329 249.5293 0001049  78.4211 289.4597  1.00272388 19363
GOES 16                 
1 41866U 16071A   22040.50284465 -.00000245  00000+0  00000+0 0  9992
2 41866   0.0900 270.6905 0001279  80.1812 254.5026  1.00276418 19175
FENGYUN 4A              
1 41882U 16077A   22039.93080686 -.00000328  00000+0  00000+0 0  9992
2 41882   0.1019  80.9539 0005917 348.6028 149.1923  1.00270207 19045
CYGFM05                 
1 41884U 16078A   22040.08365470  .00002034  00000+0  10632-3 0  9991
2 41884  34.9558 280.8259 0015047  17.4761 342.6466 15.15533531285398
CYGFM04                 
1 41885U 16078B   22040.04816131  .00002008  00000+0  10356-3 0  9997
2 41885  34.9487 270.9864 0013216  32.7426 327.4102 15.16044694285482
CYGFM02                 
1 41886U 16078C   22039.84351721  .00002176  00000+0  11199-3 0  9995
2 41886  34.9579 274.4099 0014064  25.2435 334.8962 15.16054712285379
CYGFM01                 
1 41887U 16078D   22039.86953293  .00002143  00000+0  11261-3 0  9994
2 41887  34.9526 284.3142 0015507  15.2195 344.8981 15.15310260285213
CYGFM08                 
1 41888U 16078E   22039.89223599  .00002277  00000+0  11812-3 0  9997
2 41888  34.9495 277.4065 0014564  26.2350 333.9097 15.15740187285349
CYGFM06                 
1 41889U 16078F   22039.89079143  .00002340  00000+0  12030-3 0  9996
2 41889  34.9574 272.8180 0013033  25.2131 334.9215 15.16076548285326
CYGFM07                 
1 41890U 16078G   22040.06830094  .00002203  00000+0  11347-3 0  9997
2 41890  34.9511 270.5464 0012737  31.2178 328.9288 15.16032798285486
CYGFM03                 
1 41891U 16078H   22039.93469482  .00002130  00000+0  10982-3 0  9994
2 41891  34.9544 271.8108 0012287  27.7612 332.3753 15.16027489285303
FENGYUN 3D              
1 43010U 17072A   22040.46146861  .00000055  00000+0  47426-4 0  9995
2 43010  98.8023 345.7958 0000747 278.2924  81.8162 14.19181025219610
NOAA 20                 
1 43013U 17073A   22040.57527539  .00000054  00000+0  46670-4 0  9995
2 43013  98.7454 340.8702 0001519  81.4580 278.6769 14.19527861219085
GOES 17                 
1 43226U 18022A   22040.54003625  .00000101  00000+0  00000+0 0  9993
2 43226   0.0624 268.5219 0000441  49.2782 238.9808  1.00272075 14507
FENGYUN 2H              
1 43491U 18050A   22040.49981854 -.00000125  00000+0  00000+0 0  9998
2 43491   0.8266 100.2675 0002727  26.6475 271.6871  1.00275223 13585
METOP-C                 
1 43689U 18087A   22040.61551230  .00000050  00000+0  42892-4 0  9998
2 43689  98.7033 102.5443 0003683  62.9794 297.1759 14.21493575169140
GEO-KOMPSAT-2A          
1 43823U 18100A   22040.43780637 -.00000341  00000+0  00000+0 0  9993
2 43823   0.0121  83.7589 0000872 307.7358  33.8497  1.00272176 11738
METEOR-M2 2             
1 44387U 19038A   22040.45499255 -.00000002  00000+0  18483-4 0  9998
2 44387  98.7055   2.3823 0000579 352.9542   7.1629 14.23698680135192
FENGYUN 3E              
1 49008U 21062A   22040.46213632 -.00000005  00000+0  18095-4 0  9999
2 49008  98.7091  44.4443 0002477  39.2850 320.8507 14.19819457 31151
